2026-027E               
1 67750U 26027E   26046.28266198  .00010752  00000+0  53634-3 0  9990
2 67750  97.4885 175.5466 0008748 291.2827  68.7472 15.17668244   468
2026-027F               
1 67751U 26027F   26046.28258243  .00018661  00000+0  92566-3 0  9997
2 67751  97.4888 175.5468 0009820 289.6553  70.3620 15.17725588   462
2026-027G               
1 67752U 26027G   26046.28250030  .00011512  00000+0  57257-3 0  9990
2 67752  97.4881 175.5465 0009081 292.9947  67.0329 15.17751684   461
2026-027H               
1 67753U 26027H   26046.27171760  .00443687  22818-5  87304-3 0  9997
2 67753  97.5140 175.7475 0275638 328.6183  29.8870 15.57572655   477
2026-027J               
1 67754U 26027J   26046.26942054  .00909565  23185-5  17446-2 0  9998
2 67754  97.5128 175.7529 0265817 328.3898  30.1621 15.59991589   418
CREW DRAGON 12          
1 67796U 26031A   26046.18242609  .00011408  00000+0  21745-3 0  9992
2 67796  51.6317 183.6135 0011047 100.3471 259.8763 15.48615434   265
