CCSDS_OMM_VERS = 2.0
CREATION_DATE  = 
ORIGINATOR     = 

OBJECT_NAME    = 2026-027E
OBJECT_ID      = 2026-027E
CENTER_NAME    = EARTH
REF_FRAME      = TEME
TIME_SYSTEM    = UTC
MEAN_ELEMENT_THEORY = SGP/SGP4

EPOCH          = 2026-02-15T06:47:01.995072
MEAN_MOTION    = 15.17668244
ECCENTRICITY   = .00087485
INCLINATION    = 97.4885
RA_OF_ASC_NODE = 175.5466
ARG_OF_PERICENTER = 291.2827
MEAN_ANOMALY   = 68.7472

EPHEMERIS_TYPE = 0
CLASSIFICATION_TYPE = U
NORAD_CAT_ID   = 67750
ELEMENT_SET_NO = 999
REV_AT_EPOCH   = 46
BSTAR          = .53634098E-3
MEAN_MOTION_DOT = .10752E-3
MEAN_MOTION_DDOT = 0

CCSDS_OMM_VERS = 2.0
CREATION_DATE  = 
ORIGINATOR     = 

OBJECT_NAME    = 2026-027F
OBJECT_ID      = 2026-027F
CENTER_NAME    = EARTH
REF_FRAME      = TEME
TIME_SYSTEM    = UTC
MEAN_ELEMENT_THEORY = SGP/SGP4

EPOCH          = 2026-02-15T06:46:55.121952
MEAN_MOTION    = 15.17725588
ECCENTRICITY   = .00098201
INCLINATION    = 97.4888
RA_OF_ASC_NODE = 175.5468
ARG_OF_PERICENTER = 289.6553
MEAN_ANOMALY   = 70.3620

EPHEMERIS_TYPE = 0
CLASSIFICATION_TYPE = U
NORAD_CAT_ID   = 67751
ELEMENT_SET_NO = 999
REV_AT_EPOCH   = 46
BSTAR          = .92566389E-3
MEAN_MOTION_DOT = .18661E-3
MEAN_MOTION_DDOT = 0

CCSDS_OMM_VERS = 2.0
CREATION_DATE  = 
ORIGINATOR     = 

OBJECT_NAME    = 2026-027G
OBJECT_ID      = 2026-027G
CENTER_NAME    = EARTH
REF_FRAME      = TEME
TIME_SYSTEM    = UTC
MEAN_ELEMENT_THEORY = SGP/SGP4

EPOCH          = 2026-02-15T06:46:48.025920
MEAN_MOTION    = 15.17751684
ECCENTRICITY   = .00090819
INCLINATION    = 97.4881
RA_OF_ASC_NODE = 175.5465
ARG_OF_PERICENTER = 292.9947
MEAN_ANOMALY   = 67.0329

EPHEMERIS_TYPE = 0
CLASSIFICATION_TYPE = U
NORAD_CAT_ID   = 67752
ELEMENT_SET_NO = 999
REV_AT_EPOCH   = 46
BSTAR          = .57256758E-3
MEAN_MOTION_DOT = .11512E-3
MEAN_MOTION_DDOT = 0

CCSDS_OMM_VERS = 2.0
CREATION_DATE  = 
ORIGINATOR     = 

OBJECT_NAME    = 2026-027H
OBJECT_ID      = 2026-027H
CENTER_NAME    = EARTH
REF_FRAME      = TEME
TIME_SYSTEM    = UTC
MEAN_ELEMENT_THEORY = SGP/SGP4

EPOCH          = 2026-02-15T06:31:16.400640
MEAN_MOTION    = 15.57572655
ECCENTRICITY   = .02756383
INCLINATION    = 97.5140
RA_OF_ASC_NODE = 175.7475
ARG_OF_PERICENTER = 328.6183
MEAN_ANOMALY   = 29.8870

EPHEMERIS_TYPE = 0
CLASSIFICATION_TYPE = U
NORAD_CAT_ID   = 67753
ELEMENT_SET_NO = 999
REV_AT_EPOCH   = 47
BSTAR          = .87303891E-3
MEAN_MOTION_DOT = .443687E-2
MEAN_MOTION_DDOT = .2281817E-5

CCSDS_OMM_VERS = 2.0
CREATION_DATE  = 
ORIGINATOR     = 

OBJECT_NAME    = 2026-027J
OBJECT_ID      = 2026-027J
CENTER_NAME    = EARTH
REF_FRAME      = TEME
TIME_SYSTEM    = UTC
MEAN_ELEMENT_THEORY = SGP/SGP4

EPOCH          = 2026-02-15T06:27:57.934656
MEAN_MOTION    = 15.59991589
ECCENTRICITY   = .02658179
INCLINATION    = 97.5128
RA_OF_ASC_NODE = 175.7529
ARG_OF_PERICENTER = 328.3898
MEAN_ANOMALY   = 30.1621

EPHEMERIS_TYPE = 0
CLASSIFICATION_TYPE = U
NORAD_CAT_ID   = 67754
ELEMENT_SET_NO = 999
REV_AT_EPOCH   = 41
BSTAR          = .17446373E-2
MEAN_MOTION_DOT = .909565E-2
MEAN_MOTION_DDOT = .2318483E-5

CCSDS_OMM_VERS = 2.0
CREATION_DATE  = 
ORIGINATOR     = 

OBJECT_NAME    = CREW DRAGON 12
OBJECT_ID      = 2026-031A
CENTER_NAME    = EARTH
REF_FRAME      = TEME
TIME_SYSTEM    = UTC
MEAN_ELEMENT_THEORY = SGP/SGP4

EPOCH          = 2026-02-15T04:22:41.614176
MEAN_MOTION    = 15.48615434
ECCENTRICITY   = .00110479
INCLINATION    = 51.6317
RA_OF_ASC_NODE = 183.6135
ARG_OF_PERICENTER = 100.3471
MEAN_ANOMALY   = 259.8763

EPHEMERIS_TYPE = 0
CLASSIFICATION_TYPE = U
NORAD_CAT_ID   = 67796
ELEMENT_SET_NO = 999
REV_AT_EPOCH   = 26
BSTAR          = .21745046E-3
MEAN_MOTION_DOT = .11408E-3
MEAN_MOTION_DDOT = 0

